THORAD AGENA D DEB      
1 04735U 70025CJ  26064.24995980  .06791631  13744+0  14291-1 0  9996
2 04735  99.5846  76.8615 0011375 181.1558 178.9691 16.05906055880623
COSMOS 886 DEB          
1 14501U 76126BN  26064.06053773  .05079275  10593+0  71290-2 0  9995
2 14501  65.5968 309.0469 0019045 200.6828 159.3584 16.12799361149934
COSMOS 1812             
1 17295U 87003A   26064.27669567  .04336969 -12478-5  60814-3 0  9998
2 17295  82.4662 200.6099 0009454 280.2072  79.8157 16.34939650143778
CZ-4 DEB                
1 20898U 90081BJ  26064.16648561  .03164816  11222-1  88888-2 0  9990
2 20898  98.0811 153.7267 0013302 288.6184  71.3645 15.96222891867432
CZ-2D DEB               
1 31409U 05024J   26060.90543068  .00239460  23346-4  72484-3 0  9991
2 31409  97.1482 103.0739 0004089 145.2826 214.8716 15.92111318117181
ZIYUAN 3-01 (ZY 3-01)   
1 38046U 12001A   26064.31234604  .00443634  85335-4  92535-3 0  9995
2 38046  97.1557 138.9632 0002385 240.8202 119.2838 15.99053233788000
HUMSAT-D                
1 39433U 13066T   26064.00159654  .01243708  86814-3  20528-2 0  9990
2 39433  97.4823  76.7259 0007313 168.3159 191.8292 16.03274678670717
H-2A DEB                
1 43675U 18084E   26064.23946644  .01823548  23151-2  29441-2 0  9999
2 43675  98.0032 280.4038 0003548 295.9496  64.1416 16.04070772402415
SPACEBEE-7              
1 43816U 18099BL  26064.18487951  .01870230  29896-2  19778-2 0  9991
2 43816  97.4365 150.8176 0008548 273.9712  86.0594 16.10994092398498
STARLINK-1112           
1 44925U 20001M   26064.07015251  .00866461  41840-3  10135-2 0  9999
2 44925  53.0325 265.0002 0005113 277.8537  82.1915 16.08159385340580
STARLINK-1298           
1 45413U 20019BF  26064.33335648  .00258109  36622-4  70577-3 0  9999
2 45413  53.0350  76.2251 0007313   5.4820 249.8500 15.93592405  6019
STARLINK-1398           
1 45699U 20035AU  26064.33335648  .00253214  35232-4  74257-3 0  9990
2 45699  53.0368 321.5102 0003894 151.9052 312.2164 15.92301579  6019
STARLINK-1484           
1 45756U 20038AC  26064.33335648  .00438984  92773-4  88446-3 0  9994
2 45756  52.9980  79.1356 0006844  45.0074 286.0830 15.99083734  5860
STARLINK-1587           
1 46157U 20057AS  26064.33335648  .00492460  10578-3  14301-2 0  9990
2 46157  53.0320 238.6368 0003634 263.5856 309.9221 15.92382805  5953
STARLINK-1723           
1 46333U 20062J   26064.30995043  .05870401  12016-4  13202-2 0  9999
2 46333  53.0336 344.3125 0007451 223.3674 136.6782 16.29378151304370
