[{"OBJECT_NAME":"THORAD AGENA D DEB","OBJECT_ID":"1970-025CJ","EPOCH":"2026-03-05T05:59:56.526720","MEAN_MOTION":16.05906055,"ECCENTRICITY":0.00113755,"INCLINATION":99.5846,"RA_OF_ASC_NODE":76.8615,"ARG_OF_PERICENTER":181.1558,"MEAN_ANOMALY":178.9691,"EPHEMERIS_TYPE":0,"CLASSIFICATION_TYPE":"U","NORAD_CAT_ID":4735,"ELEMENT_SET_NO":999,"REV_AT_EPOCH":88062,"BSTAR":0.014291383,"MEAN_MOTION_DOT":0.06791631,"MEAN_MOTION_DDOT":0.13743568},{"OBJECT_NAME":"COSMOS 886 DEB","OBJECT_ID":"1976-126BN","EPOCH":"2026-03-05T01:27:10.459872","MEAN_MOTION":16.12799361,"ECCENTRICITY":0.00190452,"INCLINATION":65.5968,"RA_OF_ASC_NODE":309.0469,"ARG_OF_PERICENTER":200.6828,"MEAN_ANOMALY":159.3584,"EPHEMERIS_TYPE":0,"CLASSIFICATION_TYPE":"U","NORAD_CAT_ID":14501,"ELEMENT_SET_NO":999,"REV_AT_EPOCH":14993,"BSTAR":0.0071289981,"MEAN_MOTION_DOT":0.05079275,"MEAN_MOTION_DDOT":0.10593456},{"OBJECT_NAME":"COSMOS 1812","OBJECT_ID":"1987-003A","EPOCH":"2026-03-05T06:38:26.505888","MEAN_MOTION":16.3493965,"ECCENTRICITY":0.00094546,"INCLINATION":82.4662,"RA_OF_ASC_NODE":200.6099,"ARG_OF_PERICENTER":280.2072,"MEAN_ANOMALY":79.8157,"EPHEMERIS_TYPE":0,"CLASSIFICATION_TYPE":"U","NORAD_CAT_ID":17295,"ELEMENT_SET_NO":999,"REV_AT_EPOCH":14377,"BSTAR":0.00060814253,"MEAN_MOTION_DOT":0.04336969,"MEAN_MOTION_DDOT":-1.247765e-6},{"OBJECT_NAME":"CZ-4 DEB","OBJECT_ID":"1990-081BJ","EPOCH":"2026-03-05T03:59:44.356704","MEAN_MOTION":15.96222891,"ECCENTRICITY":0.00133024,"INCLINATION":98.0811,"RA_OF_ASC_NODE":153.7267,"ARG_OF_PERICENTER":288.6184,"MEAN_ANOMALY":71.3645,"EPHEMERIS_TYPE":0,"CLASSIFICATION_TYPE":"U","NORAD_CAT_ID":20898,"ELEMENT_SET_NO":999,"REV_AT_EPOCH":86743,"BSTAR":0.0088887513,"MEAN_MOTION_DOT":0.03164816,"MEAN_MOTION_DDOT":0.01122233},{"OBJECT_NAME":"CZ-2D DEB","OBJECT_ID":"2005-024J","EPOCH":"2026-03-01T21:43:49.210752","MEAN_MOTION":15.92111318,"ECCENTRICITY":0.0004089,"INCLINATION":97.1482,"RA_OF_ASC_NODE":103.0739,"ARG_OF_PERICENTER":145.2826,"MEAN_ANOMALY":214.8716,"EPHEMERIS_TYPE":0,"CLASSIFICATION_TYPE":"U","NORAD_CAT_ID":31409,"ELEMENT_SET_NO":999,"REV_AT_EPOCH":11718,"BSTAR":0.00072484,"MEAN_MOTION_DOT":0.0023946,"MEAN_MOTION_DDOT":2.3346e-5},{"OBJECT_NAME":"ZIYUAN 3-01 (ZY 3-01)","OBJECT_ID":"2012-001A","EPOCH":"2026-03-05T07:29:46.697856","MEAN_MOTION":15.99053233,"ECCENTRICITY":0.00023853,"INCLINATION":97.1557,"RA_OF_ASC_NODE":138.9632,"ARG_OF_PERICENTER":240.8202,"MEAN_ANOMALY":119.2838,"EPHEMERIS_TYPE":0,"CLASSIFICATION_TYPE":"U","NORAD_CAT_ID":38046,"ELEMENT_SET_NO":999,"REV_AT_EPOCH":78800,"BSTAR":0.00092534822,"MEAN_MOTION_DOT":0.00443634,"MEAN_MOTION_DDOT":8.5335461e-5},{"OBJECT_NAME":"HUMSAT-D","OBJECT_ID":"2013-066T","EPOCH":"2026-03-05T00:02:17.941056","MEAN_MOTION":16.03274678,"ECCENTRICITY":0.00073131,"INCLINATION":97.4823,"RA_OF_ASC_NODE":76.7259,"ARG_OF_PERICENTER":168.3159,"MEAN_ANOMALY":191.8292,"EPHEMERIS_TYPE":0,"CLASSIFICATION_TYPE":"U","NORAD_CAT_ID":39433,"ELEMENT_SET_NO":999,"REV_AT_EPOCH":67071,"BSTAR":0.0020528274,"MEAN_MOTION_DOT":0.01243708,"MEAN_MOTION_DDOT":0.00086813532},{"OBJECT_NAME":"H-2A DEB","OBJECT_ID":"2018-084E","EPOCH":"2026-03-05T05:44:49.900416","MEAN_MOTION":16.04070772,"ECCENTRICITY":0.00035482,"INCLINATION":98.0032,"RA_OF_ASC_NODE":280.4038,"ARG_OF_PERICENTER":295.9496,"MEAN_ANOMALY":64.1416,"EPHEMERIS_TYPE":0,"CLASSIFICATION_TYPE":"U","NORAD_CAT_ID":43675,"ELEMENT_SET_NO":999,"REV_AT_EPOCH":40241,"BSTAR":0.0029440978,"MEAN_MOTION_DOT":0.01823548,"MEAN_MOTION_DDOT":0.0023150547},{"OBJECT_NAME":"SPACEBEE-7","OBJECT_ID":"2018-099BL","EPOCH":"2026-03-05T04:26:13.589664","MEAN_MOTION":16.10994092,"ECCENTRICITY":0.00085483,"INCLINATION":97.4365,"RA_OF_ASC_NODE":150.8176,"ARG_OF_PERICENTER":273.9712,"MEAN_ANOMALY":86.0594,"EPHEMERIS_TYPE":0,"CLASSIFICATION_TYPE":"U","NORAD_CAT_ID":43816,"ELEMENT_SET_NO":999,"REV_AT_EPOCH":39849,"BSTAR":0.0019778227,"MEAN_MOTION_DOT":0.0187023,"MEAN_MOTION_DDOT":0.0029895569},{"OBJECT_NAME":"STARLINK-1112","OBJECT_ID":"2020-001M","EPOCH":"2026-03-05T01:41:01.176864","MEAN_MOTION":16.08159385,"ECCENTRICITY":0.00051139,"INCLINATION":53.0325,"RA_OF_ASC_NODE":265.0002,"ARG_OF_PERICENTER":277.8537,"MEAN_ANOMALY":82.1915,"EPHEMERIS_TYPE":0,"CLASSIFICATION_TYPE":"U","NORAD_CAT_ID":44925,"ELEMENT_SET_NO":999,"REV_AT_EPOCH":34058,"BSTAR":0.0010135113,"MEAN_MOTION_DOT":0.00866461,"MEAN_MOTION_DDOT":0.00041840279},{"OBJECT_NAME":"STARLINK-1298","OBJECT_ID":"2020-019BF","EPOCH":"2026-03-05T08:00:01.999872","MEAN_MOTION":15.93592405,"ECCENTRICITY":0.00073132,"INCLINATION":53.035,"RA_OF_ASC_NODE":76.2251,"ARG_OF_PERICENTER":5.482,"MEAN_ANOMALY":249.85,"EPHEMERIS_TYPE":0,"CLASSIFICATION_TYPE":"U","NORAD_CAT_ID":45413,"ELEMENT_SET_NO":999,"REV_AT_EPOCH":601,"BSTAR":0.00070576685,"MEAN_MOTION_DOT":0.00258109,"MEAN_MOTION_DDOT":3.6622008e-5},{"OBJECT_NAME":"STARLINK-1398","OBJECT_ID":"2020-035AU","EPOCH":"2026-03-05T08:00:01.999872","MEAN_MOTION":15.92301579,"ECCENTRICITY":0.00038948,"INCLINATION":53.0368,"RA_OF_ASC_NODE":321.5102,"ARG_OF_PERICENTER":151.9052,"MEAN_ANOMALY":312.2164,"EPHEMERIS_TYPE":0,"CLASSIFICATION_TYPE":"U","NORAD_CAT_ID":45699,"ELEMENT_SET_NO":999,"REV_AT_EPOCH":601,"BSTAR":0.00074257468,"MEAN_MOTION_DOT":0.00253214,"MEAN_MOTION_DDOT":3.5231672e-5},{"OBJECT_NAME":"STARLINK-1484","OBJECT_ID":"2020-038AC","EPOCH":"2026-03-05T08:00:01.999872","MEAN_MOTION":15.99083734,"ECCENTRICITY":0.00068441,"INCLINATION":52.998,"RA_OF_ASC_NODE":79.1356,"ARG_OF_PERICENTER":45.0074,"MEAN_ANOMALY":286.083,"EPHEMERIS_TYPE":0,"CLASSIFICATION_TYPE":"U","NORAD_CAT_ID":45756,"ELEMENT_SET_NO":999,"REV_AT_EPOCH":586,"BSTAR":0.00088445859,"MEAN_MOTION_DOT":0.00438984,"MEAN_MOTION_DDOT":9.2772557e-5},{"OBJECT_NAME":"STARLINK-1587","OBJECT_ID":"2020-057AS","EPOCH":"2026-03-05T08:00:01.999872","MEAN_MOTION":15.92382805,"ECCENTRICITY":0.00036345,"INCLINATION":53.032,"RA_OF_ASC_NODE":238.6368,"ARG_OF_PERICENTER":263.5856,"MEAN_ANOMALY":309.9221,"EPHEMERIS_TYPE":0,"CLASSIFICATION_TYPE":"U","NORAD_CAT_ID":46157,"ELEMENT_SET_NO":999,"REV_AT_EPOCH":595,"BSTAR":0.0014300758,"MEAN_MOTION_DOT":0.0049246,"MEAN_MOTION_DDOT":0.00010578111},{"OBJECT_NAME":"STARLINK-1723","OBJECT_ID":"2020-062J","EPOCH":"2026-03-05T07:26:19.717152","MEAN_MOTION":16.29378151,"ECCENTRICITY":0.0007451,"INCLINATION":53.0336,"RA_OF_ASC_NODE":344.3125,"ARG_OF_PERICENTER":223.3674,"MEAN_ANOMALY":136.6782,"EPHEMERIS_TYPE":0,"CLASSIFICATION_TYPE":"U","NORAD_CAT_ID":46333,"ELEMENT_SET_NO":999,"REV_AT_EPOCH":30437,"BSTAR":0.0013202,"MEAN_MOTION_DOT":0.05870401,"MEAN_MOTION_DDOT":1.2016e-5}]
